H1 CPF  1  DGF 2022 03 21 11  5801 larets     NONE      
H2   304206 5557    27944 2022 03 21 00 00 00 2022 03 28 00 00 00    30 1 1  0 0 0
H5  0.0650
H9
10 0 59661  82800.000000  0       4450321.313       5049557.864      -2176414.353
10 0 59661  82830.000000  0       4529659.449       5066132.686      -1963597.375
10 0 59661  82860.000000  0       4604485.830       5077256.321      -1748783.740
10 0 59661  82890.000000  0       4674700.449       5082936.794      -1532191.645
10 0 59661  82920.000000  0       4740208.011       5083188.073      -1314041.157
10 0 59661  82950.000000  0       4800918.056       5078030.037      -1094553.992
10 0 59661  82980.000000  0       4856745.077       5067488.441       -873953.285
10 0 59661  83010.000000  0       4907608.639       5051594.868       -652463.362
10 0 59661  83040.000000  0       4953433.484       5030386.676       -430309.506
10 0 59661  83070.000000  0       4994149.640       5003906.944       -207717.728
10 0 59661  83100.000000  0       5029692.514       4972204.402         15085.467
10 0 59661  83130.000000  0       5060002.986       4935333.362        237873.314
10 0 59661  83160.000000  0       5085027.493       4893353.648        460419.021
10 0 59661  83190.000000  0       5104718.118       4846330.504        682495.998
10 0 59661  83220.000000  0       5119032.654       4794334.512        903878.103
10 0 59661  83250.000000  0       5127934.683       4737441.493       1124339.863
10 0 59661  83280.000000  0       5131393.633       4675732.407       1343656.720
10 0 59661  83310.000000  0       5129384.836       4609293.245       1561605.256
10 0 59661  83340.000000  0       5121889.577       4538214.918       1777963.434
10 0 59661  83370.000000  0       5108895.134       4462593.130       1992510.827
10 0 59661  83400.000000  0       5090394.807       4382528.260       2205028.848
10 0 59661  83430.000000  0       5066387.946       4298125.226       2415300.981
10 0 59661  83460.000000  0       5036879.971       4209493.352       2623112.995
10 0 59661  83490.000000  0       5001882.376       4116746.228       2828253.175
10 0 59661  83520.000000  0       4961412.746       4020001.568       3030512.533
10 0 59661  83550.000000  0       4915494.742       3919381.059       3229685.027
10 0 59661  83580.000000  0       4864158.103       3815010.210       3425567.772
10 0 59661  83610.000000  0       4807438.620       3707018.193       3617961.248
10 0 59661  83640.000000  0       4745378.116       3595537.687       3806669.506
10 0 59661  83670.000000  0       4678024.414       3480704.710       3991500.362
10 0 59661  83700.000000  0       4605431.303       3362658.452       4172265.592
10 0 59661  83730.000000  0       4527658.499       3241541.111       4348781.123
10 0 59661  83760.000000  0       4444771.595       3117497.717       4520867.218
10 0 59661  83790.000000  0       4356842.008       2990675.966       4688348.664
10 0 59661  83820.000000  0       4263946.913       2861226.035       4851054.958
10 0 59661  83850.000000  0       4166169.162       2729300.405       5008820.474
10 0 59661  83880.000000  0       4063597.205       2595053.675       5161484.630
10 0 59661  83910.000000  0       3956325.007       2458642.386       5308892.036
10 0 59661  83940.000000  0       3844451.962       2320224.836       5450892.655
10 0 59661  83970.000000  0       3728082.802       2179960.899       5587341.950
10 0 59661  84000.000000  0       3607327.490       2038011.837       5718101.035
10 0 59661  84030.000000  0       3482301.117       1894540.114       5843036.800
10 0 59661  84060.000000  0       3353123.791       1749709.204       5962022.054
10 0 59661  84090.000000  0       3219920.514       1603683.412       6074935.640
10 0 59661  84120.000000  0       3082821.066       1456627.681       6181662.559
10 0 59661  84150.000000  0       2941959.868       1308707.406       6282094.075
10 0 59661  84180.000000  0       2797475.857       1160088.253       6376127.828
10 0 59661  84210.000000  0       2649512.345       1010935.973       6463667.925
10 0 59661  84240.000000  0       2498216.876        861416.223       6544625.043
10 0 59661  84270.000000  0       2343741.082        711694.379       6618916.510
10 0 59661  84300.000000  0       2186240.528        561935.360       6686466.395
10 0 59661  84330.000000  0       2025874.555        412303.444       6747205.582
10 0 59661  84360.000000  0       1862806.124        262962.091       6801071.838
10 0 59661  84390.000000  0       1697201.645        114073.765       6848009.880
10 0 59661  84420.000000  0       1529230.810        -34200.241       6887971.428
10 0 59661  84450.000000  0       1359066.418       -181699.987       6920915.259
10 0 59661  84480.000000  0       1186884.193       -328267.055       6946807.246
10 0 59661  84510.000000  0       1012862.610       -473744.718       6965620.386
10 0 59661  84540.000000  0        837182.706       -617978.111       6977334.831
10 0 59661  84570.000000  0        660027.899       -760814.390       6981937.912
10 0 59661  84600.000000  0        481583.793       -902102.893       6979424.158
10 0 59661  84630.000000  0        302037.982      -1041695.307       6969795.297
10 0 59661  84660.000000  0        121579.857      -1179445.819       6953060.264
10 0 59661  84690.000000  0        -59599.591      -1315211.267       6929235.188
10 0 59661  84720.000000  0       -241307.977      -1448851.299       6898343.385
10 0 59661  84750.000000  0       -423351.723      -1580228.510       6860415.336
10 0 59661  84780.000000  0       -605536.264      -1709208.589       6815488.660
10 0 59661  84810.000000  0       -787666.256      -1835660.457       6763608.077
10 0 59661  84840.000000  0       -969545.781      -1959456.400       6704825.369
10 0 59661  84870.000000  0      -1150978.556      -2080472.198       6639199.335
10 0 59661  84900.000000  0      -1331768.141      -2198587.252       6566795.734
10 0 59661  84930.000000  0      -1511718.150      -2313684.704       6487687.234
10 0 59661  84960.000000  0      -1690632.466      -2425651.555       6401953.349
10 0 59661  84990.000000  0      -1868315.455      -2534378.783       6309680.361
10 0 59661  85020.000000  0      -2044572.179      -2639761.450       6210961.252
10 0 59661  85050.000000  0      -2219208.614      -2741698.811       6105895.615
10 0 59661  85080.000000  0      -2392031.872      -2840094.417       5994589.563
10 0 59661  85110.000000  0      -2562850.413      -2934856.211       5877155.632
10 0 59661  85140.000000  0      -2731474.271      -3025896.622       5753712.670
10 0 59661  85170.000000  0      -2897715.269      -3113132.645       5624385.723
10 0 59661  85200.000000  0      -3061387.236      -3196485.926       5489305.912
10 0 59661  85230.000000  0      -3222306.215      -3275882.835       5348610.300
10 0 59661  85260.000000  0      -3380290.681      -3351254.531       5202441.764
10 0 59661  85290.000000  0      -3535161.745      -3422537.033       5050948.848
10 0 59661  85320.000000  0      -3686743.368      -3489671.272       4894285.617
10 0 59661  85350.000000  0      -3834862.559      -3552603.145       4732611.509
10 0 59661  85380.000000  0      -3979349.587      -3611283.561       4566091.172
10 0 59661  85410.000000  0      -4120038.177      -3665668.484       4394894.297
10 0 59661  85440.000000  0      -4256765.708      -3715718.966       4219195.452
10 0 59661  85470.000000  0      -4389373.408      -3761401.174       4039173.901
10 0 59661  85500.000000  0      -4517706.545      -3802686.415       3855013.425
10 0 59661  85530.000000  0      -4641614.613      -3839551.149       3666902.137
10 0 59661  85560.000000  0      -4760951.514      -3871977.005       3475032.288
10 0 59661  85590.000000  0      -4875575.747      -3899950.781       3279600.074
10 0 59661  85620.000000  0      -4985350.574      -3923464.449       3080805.431
10 0 59661  85650.000000  0      -5090144.196      -3942515.144       2878851.822
10 0 59661  85680.000000  0      -5189829.920      -3957105.148       2673946.033
10 0 59661  85710.000000  0      -5284286.311      -3967241.875       2466297.947
10 0 59661  85740.000000  0      -5373397.354      -3972937.838       2256120.324
10 0 59661  85770.000000  0      -5457052.591      -3974210.615       2043628.583
10 0 59661  85800.000000  0      -5535147.270      -3971082.813       1829040.566
10 0 59661  85830.000000  0      -5607582.474      -3963582.019       1612576.314
10 0 59661  85860.000000  0      -5674265.253      -3951740.746       1394457.834
10 0 59661  85890.000000  0      -5735108.746      -3935596.378       1174908.856
10 0 59661  85920.000000  0      -5790032.293      -3915191.104        954154.603
10 0 59661  85950.000000  0      -5838961.540      -3890571.847        732421.546
10 0 59661  85980.000000  0      -5881828.542      -3861790.190        509937.165
10 0 59661  86010.000000  0      -5918571.856      -3828902.292        286929.704
10 0 59661  86040.000000  0      -5949136.620      -3791968.804         63627.928
10 0 59661  86070.000000  0      -5973474.635      -3751054.775       -159739.122
10 0 59661  86100.000000  0      -5991544.431      -3706229.555       -382942.376
10 0 59661  86130.000000  0      -6003311.330      -3657566.690       -605752.982
10 0 59661  86160.000000  0      -6008747.491      -3605143.811       -827942.551
10 0 59661  86190.000000  0      -6007831.958      -3549042.525      -1049283.404
10 0 59661  86220.000000  0      -6000550.686      -3489348.290      -1269548.812
10 0 59661  86250.000000  0      -5986896.572      -3426150.296      -1488513.236
10 0 59661  86280.000000  0      -5966869.465      -3359541.335      -1705952.568
10 0 59661  86310.000000  0      -5940476.182      -3289617.672      -1921644.363
10 0 59661  86340.000000  0      -5907730.503      -3216478.914      -2135368.072
10 0 59661  86370.000000  0      -5868653.172      -3140227.867      -2346905.276
99
